{
    "links": {
        "self": "http://www.neowsapp.com/rest/v1/neo/3781968?api_key=iIulBulltgU6a56xZRHN4H3l9WmuAYTsLGpBGhQ2"
    },
    "id": "3781968",
    "neo_reference_id": "3781968",
    "name": "(2017 SQ19)",
    "designation": "2017 SQ19",
    "nasa_jpl_url": "http://ssd.jpl.nasa.gov/sbdb.cgi?sstr=3781968",
    "absolute_magnitude_h": 24.6,
    "estimated_diameter": {
        "kilometers": {
            "estimated_diameter_min": 0.0319561887,
            "estimated_diameter_max": 0.0714562102
        },
        "meters": {
            "estimated_diameter_min": 31.9561886721,
            "estimated_diameter_max": 71.4562101727
        },
        "miles": {
            "estimated_diameter_min": 0.0198566489,
            "estimated_diameter_max": 0.0444008168
        },
        "feet": {
            "estimated_diameter_min": 104.8431420431,
            "estimated_diameter_max": 234.436392583
        }
    },
    "is_potentially_hazardous_asteroid": false,
    "close_approach_data": [
        {
            "close_approach_date": "2017-10-23",
            "close_approach_date_full": "2017-Oct-23 16:09",
            "epoch_date_close_approach": 1508774940000,
            "relative_velocity": {
                "kilometers_per_second": "8.7401440433",
                "kilometers_per_hour": "31464.5185557911",
                "miles_per_hour": "19550.8282104025"
            },
            "miss_distance": {
                "astronomical": "0.1030357249",
                "lunar": "40.0808969861",
                "kilometers": "15413924.978945963",
                "miles": "9577768.8548737694"
            },
            "orbiting_body": "Earth"
        }
    ],
    "orbital_data": {
        "orbit_id": "1",
        "orbit_determination_date": "2017-09-30 10:42:08",
        "first_observation_date": "2017-09-25",
        "last_observation_date": "2017-09-30",
        "data_arc_in_days": 5,
        "observations_used": 16,
        "orbit_uncertainty": "9",
        "minimum_orbit_intersection": ".0901165",
        "jupiter_tisserand_invariant": "3.214",
        "epoch_osculation": "2458022.5",
        "eccentricity": ".5851558579037013",
        "semi_major_axis": "2.478735922391113",
        "inclination": "5.171139177606118",
        "ascending_node_longitude": "164.7684664912017",
        "orbital_period": "1425.423183250243",
        "perihelion_distance": "1.028289077207619",
        "perihelion_argument": "250.4907926089211",
        "aphelion_distance": "3.929182767574607",
        "perihelion_time": "2458069.446251770802",
        "mean_anomaly": "348.1434153477482",
        "mean_motion": ".252556577043408",
        "equinox": "J2000",
        "orbit_class": {
            "orbit_class_type": "AMO",
            "orbit_class_description": "Near-Earth asteroid orbits similar to that of 1221 Amor",
            "orbit_class_range": "1.017 AU < q (perihelion) < 1.3 AU"
        }
    },
    "is_sentry_object": false
}